{"type": "FeatureCollection", "features": [ {"type": "Feature", "properties": {"norad_id": 66604, "name": "STARLINK-35977", "group": "last-30-days", "lat": 29.854217288906067, "lon": -76.78823332294404, "alt_km": 440.0218175168129, "timestamp": "2025-12-21T14:40:46.632338+00:00", "meta": {"OBJECT_NAME": "STARLINK-35977", "OBJECT_ID": "2025-270S", "EPOCH": "2025-12-21T03:12:49.963104", "MEAN_MOTION": 15.4071159, "ECCENTRICITY": 0.00015961, "INCLINATION": 42.9991, "RA_OF_ASC_NODE": 143.987, "ARG_OF_PERICENTER": 271.4931, "MEAN_ANOMALY": 88.5743, "EPHEMERIS_TYPE": 0, "CLASSIFICATION_TYPE": "U", "NORAD_CAT_ID": 66604, "ELEMENT_SET_NO": 999, "REV_AT_EPOCH": 564, "BSTAR": 0.00077365116, "MEAN_MOTION_DOT": 0.00032163, "MEAN_MOTION_DDOT": 0}, "tle": {"line1": "1 66604U 25270S   25355.13391161  .00032163  00000+0  77365-3 0  9998", "line2": "2 66604  42.9991 143.9870 0001596 271.4931  88.5743 15.40711590  5641"}}, "geometry": {"type": "Point", "coordinates": [-76.78823332294404, 29.854217288906067]}}, {"type": "Feature", "properties": {"norad_id": 66605, "name": "STARLINK-36052", "group": "last-30-days", "lat": -18.419077694379205, "lon": -18.009571217210812, "alt_km": 445.27461244144524, "timestamp": "2025-12-21T14:40:46.632348+00:00", "meta": {"OBJECT_NAME": "STARLINK-36052", "OBJECT_ID": "2025-270T", "EPOCH": "2025-12-21T06:00:00.999648", "MEAN_MOTION": 15.40699695, "ECCENTRICITY": 0.00022686, "INCLINATION": 43, "RA_OF_ASC_NODE": 143.1356, "ARG_OF_PERICENTER": 277.1701, "MEAN_ANOMALY": 82.1414, "EPHEMERIS_TYPE": 0, "CLASSIFICATION_TYPE": "U", "NORAD_CAT_ID": 66605, "ELEMENT_SET_NO": 999, "REV_AT_EPOCH": 576, "BSTAR": 0.001177952, "MEAN_MOTION_DOT": 0.00049222, "MEAN_MOTION_DDOT": 0}, "tle": {"line1": "1 66605U 25270T   25355.25001157  .00049222  00000+0  11780-2 0  9997", "line2": "2 66605  43.0000 143.1356 0002268 277.1701  82.1414 15.40699695  5760"}}, "geometry": {"type": "Point", "coordinates": [-18.009571217210812, -18.419077694379205]}}, {"type": "Feature", "properties": {"norad_id": 66606, "name": "STARLINK-36063", "group": "last-30-days", "lat": -21.06118223798853, "lon": 116.34339372596094, "alt_km": 415.2235710482728, "timestamp": "2025-12-21T14:40:46.632358+00:00", "meta": {"OBJECT_NAME": "STARLINK-36063", "OBJECT_ID": "2025-270U", "EPOCH": "2025-12-19T11:48:20.511648", "MEAN_MOTION": 15.50662232, "ECCENTRICITY": 0.0001816, "INCLINATION": 42.9987, "RA_OF_ASC_NODE": 153.1595, "ARG_OF_PERICENTER": 282.0515, "MEAN_ANOMALY": 78.0141, "EPHEMERIS_TYPE": 0, "CLASSIFICATION_TYPE": "U", "NORAD_CAT_ID": 66606, "ELEMENT_SET_NO": 999, "REV_AT_EPOCH": 539, "BSTAR": 0.00079676, "MEAN_MOTION_DOT": 0.0004682, "MEAN_MOTION_DDOT": 0}, "tle": {"line1": "1 66606U 25270U   25353.49190407  .00046820  00000+0  79676-3 0  9999", "line2": "2 66606  42.9987 153.1595 0001816 282.0515  78.0141 15.50662232  5393"}}, "geometry": {"type": "Point", "coordinates": [116.34339372596094, -21.06118223798853]}}, {"type": "Feature", "properties": {"norad_id": 66607, "name": "STARLINK-35993", "group": "last-30-days", "lat": -26.00511640830961, "lon": -7.410276887552384, "alt_km": 445.5600954330039, "timestamp": "2025-12-21T14:40:46.632368+00:00", "meta": {"OBJECT_NAME": "STARLINK-35993", "OBJECT_ID": "2025-270V", "EPOCH": "2025-12-21T06:00:00.999648", "MEAN_MOTION": 15.40688491, "ECCENTRICITY": 0.00019703, "INCLINATION": 42.9999, "RA_OF_ASC_NODE": 143.1055, "ARG_OF_PERICENTER": 268.0326, "MEAN_ANOMALY": 103.7133, "EPHEMERIS_TYPE": 0, "CLASSIFICATION_TYPE": "U", "NORAD_CAT_ID": 66607, "ELEMENT_SET_NO": 999, "REV_AT_EPOCH": 566, "BSTAR": 0.0010618831, "MEAN_MOTION_DOT": 0.00044296, "MEAN_MOTION_DDOT": 0}, "tle": {"line1": "1 66607U 25270V   25355.25001157  .00044296  00000+0  10619-2 0  9995", "line2": "2 66607  42.9999 143.1055 0001970 268.0326 103.7133 15.40688491  5663"}}, "geometry": {"type": "Point", "coordinates": [-7.410276887552384, -26.00511640830961]}}, {"type": "Feature", "properties": {"norad_id": 66608, "name": "STARLINK-36036", "group": "last-30-days", "lat": -20.04827089255683, "lon": 117.69345092702058, "alt_km": 415.4717480143536, "timestamp": "2025-12-21T14:40:46.632381+00:00", "meta": {"OBJECT_NAME": "STARLINK-36036", "OBJECT_ID": "2025-270W", "EPOCH": "2025-12-19T11:47:53.026080", "MEAN_MOTION": 15.50612484, "ECCENTRICITY": 0.0001538, "INCLINATION": 42.999, "RA_OF_ASC_NODE": 153.1562, "ARG_OF_PERICENTER": 266.4602, "MEAN_ANOMALY": 93.6082, "EPHEMERIS_TYPE": 0, "CLASSIFICATION_TYPE": "U", "NORAD_CAT_ID": 66608, "ELEMENT_SET_NO": 999, "REV_AT_EPOCH": 523, "BSTAR": 0.0010303, "MEAN_MOTION_DOT": 0.00060643, "MEAN_MOTION_DDOT": 0}, "tle": {"line1": "1 66608U 25270W   25353.49158595  .00060643  00000+0  10303-2 0  9993", "line2": "2 66608  42.9990 153.1562 0001538 266.4602  93.6082 15.50612484  5231"}}, "geometry": {"type": "Point", "coordinates": [117.69345092702058, -20.04827089255683]}}, {"type": "Feature", "properties": {"norad_id": 66609, "name": "STARLINK-36034", "group": "last-30-days", "lat": -20.05955170286308, "lon": 117.68111934844735, "alt_km": 420.48161959360914, "timestamp": "2025-12-21T14:40:46.632391+00:00", "meta": {"OBJECT_NAME": "STARLINK-36034", "OBJECT_ID": "2025-270X", "EPOCH": "2025-12-20T17:09:50.095296", "MEAN_MOTION": 15.50362019, "ECCENTRICITY": 0.00048554, "INCLINATION": 42.9992, "RA_OF_ASC_NODE": 145.9955, "ARG_OF_PERICENTER": 131.0653, "MEAN_ANOMALY": 229.0628, "EPHEMERIS_TYPE": 0, "CLASSIFICATION_TYPE": "U", "NORAD_CAT_ID": 66609, "ELEMENT_SET_NO": 999, "REV_AT_EPOCH": 542, "BSTAR": 0.0011127835, "MEAN_MOTION_DOT": 0.00065002, "MEAN_MOTION_DDOT": 0}, "tle": {"line1": "1 66609U 25270X   25354.71516314  .00065002  00000+0  11128-2 0  9997", "line2": "2 66609  42.9992 145.9955 0004855 131.0653 229.0628 15.50362019  5425"}}, "geometry": {"type": "Point", "coordinates": [117.68111934844735, -20.05955170286308]}}, {"type": "Feature", "properties": {"norad_id": 66610, "name": "STARLINK-35680", "group": "last-30-days", "lat": -38.12333665687175, "lon": 18.327620139595737, "alt_km": 446.0621336743561, "timestamp": "2025-12-21T14:40:46.632402+00:00", "meta": {"OBJECT_NAME": "STARLINK-35680", "OBJECT_ID": "2025-270Y", "EPOCH": "2025-12-21T06:00:00.999648", "MEAN_MOTION": 15.40679498, "ECCENTRICITY": 0.00021552, "INCLINATION": 42.9997, "RA_OF_ASC_NODE": 143.0436, "ARG_OF_PERICENTER": 283.2653, "MEAN_ANOMALY": 113.3951, "EPHEMERIS_TYPE": 0, "CLASSIFICATION_TYPE": "U", "NORAD_CAT_ID": 66610, "ELEMENT_SET_NO": 999, "REV_AT_EPOCH": 587, "BSTAR": 0.0010240953, "MEAN_MOTION_DOT": 0.00042687, "MEAN_MOTION_DDOT": 0}, "tle": {"line1": "1 66610U 25270Y   25355.25001157  .00042687  00000+0  10241-2 0  9992", "line2": "2 66610  42.9997 143.0436 0002155 283.2653 113.3951 15.40679498  5870"}}, "geometry": {"type": "Point", "coordinates": [18.327620139595737, -38.12333665687175]}}, {"type": "Feature", "properties": {"norad_id": 66611, "name": "STARLINK-35583", "group": "last-30-days", "lat": -42.97942570095388, "lon": 50.68312605286585, "alt_km": 446.2833512308862, "timestamp": "2025-12-21T14:40:46.632412+00:00", "meta": {"OBJECT_NAME": "STARLINK-35583", "OBJECT_ID": "2025-270Z", "EPOCH": "2025-12-21T06:00:00.999648", "MEAN_MOTION": 15.40678174, "ECCENTRICITY": 0.0001684, "INCLINATION": 42.9999, "RA_OF_ASC_NODE": 142.9839, "ARG_OF_PERICENTER": 286.2113, "MEAN_ANOMALY": 135.417, "EPHEMERIS_TYPE": 0, "CLASSIFICATION_TYPE": "U", "NORAD_CAT_ID": 66611, "ELEMENT_SET_NO": 999, "REV_AT_EPOCH": 587, "BSTAR": 0.0012618141, "MEAN_MOTION_DOT": 0.00052733, "MEAN_MOTION_DDOT": 0}, "tle": {"line1": "1 66611U 25270Z   25355.25001157  .00052733  00000+0  12618-2 0  9996", "line2": "2 66611  42.9999 142.9839 0001684 286.2113 135.4170 15.40678174  5876"}}, "geometry": {"type": "Point", "coordinates": [50.68312605286585, -42.97942570095388]}}, {"type": "Feature", "properties": {"norad_id": 66612, "name": "STARLINK-36039", "group": "last-30-days", "lat": 14.325855211335314, "lon": 157.40363646106005, "alt_km": 442.4359230361815, "timestamp": "2025-12-21T14:40:46.632422+00:00", "meta": {"OBJECT_NAME": "STARLINK-36039", "OBJECT_ID": "2025-270AA", "EPOCH": "2025-12-20T10:34:58.712448", "MEAN_MOTION": 15.40726185, "ECCENTRICITY": 0.00016577, "INCLINATION": 43.0005, "RA_OF_ASC_NODE": 148.2468, "ARG_OF_PERICENTER": 221.4551, "MEAN_ANOMALY": 138.618, "EPHEMERIS_TYPE": 0, "CLASSIFICATION_TYPE": "U", "NORAD_CAT_ID": 66612, "ELEMENT_SET_NO": 999, "REV_AT_EPOCH": 553, "BSTAR": 0.00084609538, "MEAN_MOTION_DOT": 0.00035234, "MEAN_MOTION_DDOT": 0}, "tle": {"line1": "1 66612U 25270AA  25354.44095732  .00035234  00000+0  84610-3 0  9998", "line2": "2 66612  43.0005 148.2468 0001657 221.4551 138.6180 15.40726185  5536"}}, "geometry": {"type": "Point", "coordinates": [157.40363646106005, 14.325855211335314]}}, {"type": "Feature", "properties": {"norad_id": 66613, "name": "STARLINK-36037", "group": "last-30-days", "lat": 29.328068805772677, "lon": 178.52272403306822, "alt_km": 439.8239772452016, "timestamp": "2025-12-21T14:40:46.632432+00:00", "meta": {"OBJECT_NAME": "STARLINK-36037", "OBJECT_ID": "2025-270AB", "EPOCH": "2025-12-21T03:35:24.870624", "MEAN_MOTION": 15.40715796, "ECCENTRICITY": 0.00010925, "INCLINATION": 42.9975, "RA_OF_ASC_NODE": 144.1043, "ARG_OF_PERICENTER": 262.5088, "MEAN_ANOMALY": 97.5644, "EPHEMERIS_TYPE": 0, "CLASSIFICATION_TYPE": "U", "NORAD_CAT_ID": 66613, "ELEMENT_SET_NO": 999, "REV_AT_EPOCH": 564, "BSTAR": 0.00072414903, "MEAN_MOTION_DOT": 0.00030081, "MEAN_MOTION_DDOT": 0}, "tle": {"line1": "1 66613U 25270AB  25355.14959341  .00030081  00000+0  72415-3 0  9997", "line2": "2 66613  42.9975 144.1043 0001092 262.5088  97.5644 15.40715796  5645"}}, "geometry": {"type": "Point", "coordinates": [178.52272403306822, 29.328068805772677]}}]}